FENGYUN 1C DEB          
1 31978U 99025CPF 17345.44484601  .00000196  00000-0  24989-3 0  9995
2 31978  98.3717 154.8311 0277950 173.7147 186.7602 13.57306061518813
